NORAD_CAT_ID,OBJECT_NAME,OBJECT_TYPE,EPOCH,MEAN_MOTION,ECCENTRICITY,INCLINATION,RA_OF_ASC_NODE,ARG_OF_PERICENTER,MEAN_ANOMALY,BSTAR,MEAN_MOTION_DOT,MEAN_MOTION_DDOT,TLE_LINE0,TLE_LINE1,TLE_LINE2,SEMIMAJOR_AXIS,PERIOD,APOGEE,PERIGEE,DECAYED
50821.0,STARLINK-3346,PAYLOAD,2023-09-20 06:36:57,15.08832401,0.0001478,53.2158,255.7376,101.7862,258.3296,-9.7481e-06,-4.43e-06,0.0,0 STARLINK-3346,1 50821U 22001U   23263.27567010 -.00000443  00000-0 -97481-5 0  9992,2 50821  53.2158 255.7376 0001478 101.7862 258.3296 15.08832401 94327,6917.904,95.438,540.791,538.746,0.0
50821.0,STARLINK-3346,PAYLOAD,2023-09-20 16:09:16,15.08830402,0.0001453,53.2156,253.9511,93.0268,267.0891,-5.0548e-05,-1.092e-05,0.0,0 STARLINK-3346,1 50821U 22001U   23263.67311305 -.00001092  00000-0 -50548-4 0  9993,2 50821  53.2156 253.9511 0001453  93.0268 267.0891 15.08830402 94385,6917.91,95.438,540.78,538.77,0.0
50821.0,STARLINK-3346,PAYLOAD,2023-09-21 06:27:45,15.08836112,0.000143,53.2164,251.2775,100.6887,259.4267,9.1431e-06,-1.42e-06,0.0,0 STARLINK-3346,1 50821U 22001U   23264.26927625 -.00000142  00000-0  91431-5 0  9998,2 50821  53.2164 251.2775 0001430 100.6887 259.4267 15.08836112 95729,6917.892,95.438,540.747,538.768,0.0
50821.0,STARLINK-3346,PAYLOAD,2023-09-21 16:00:04,15.08838783,0.0001435,53.2165,249.4933,97.9609,262.1546,1.5403e-05,-4.3e-07,0.0,0 STARLINK-3346,1 50821U 22001U   23264.66671581 -.00000043  00000-0  15403-4 0  9993,2 50821  53.2165 249.4933 0001435  97.9609 262.1546 15.08838783 94535,6917.884,95.438,540.742,538.756,0.0
50821.0,STARLINK-3346,PAYLOAD,2023-09-22 07:53:55,15.08843057,0.0001386,53.2163,246.5192,93.7466,266.3684,0.0002078,3.021e-05,0.0,0 STARLINK-3346,1 50821U 22001U   23265.32911301  .00003021  00000-0  20780-3 0  9995,2 50821  53.2163 246.5192 0001386  93.7466 266.3684 15.08843057 95886,6917.871,95.437,540.695,538.777,0.0
50821.0,STARLINK-3346,PAYLOAD,2023-09-22 11:04:41,15.08847305,0.0001381,53.2161,245.924,94.1599,265.9551,0.00024337,3.588e-05,0.0,0 STARLINK-3346,1 50821U 22001U   23265.46159001  .00003588  00000-0  24337-3 0  9991,2 50821  53.2161 245.9240 0001381  94.1599 265.9551 15.08847305 94650,6917.858,95.437,540.678,538.768,0.0
50821.0,STARLINK-3346,PAYLOAD,2023-09-22 15:50:51,15.08845022,0.0001291,53.2147,245.0307,85.3774,274.7365,0.00022195,3.247e-05,0.0,0 STARLINK-3346,1 50821U 22001U   23265.66031370  .00003247  00000-0  22195-3 0  9993,2 50821  53.2147 245.0307 0001291  85.3774 274.7365 15.08845022 94684,6917.865,95.437,540.623,538.837,0.0
50821.0,STARLINK-3346,PAYLOAD,2023-09-22 23:47:47,15.08838295,0.0001339,53.2151,243.5438,83.4854,276.6291,0.00015682,2.209e-05,0.0,0 STARLINK-3346,1 50821U 22001U   23265.99151785  .00002209  00000-0  15682-3 0  9992,2 50821  53.2151 243.5438 0001339  83.4854 276.6291 15.08838295 95985,6917.886,95.438,540.677,538.824,0.0
50821.0,STARLINK-3346,PAYLOAD,2023-09-23 07:44:42,15.08847178,0.0001353,53.2152,242.0568,82.013,278.1016,0.00036954,5.599e-05,0.0,0 STARLINK-3346,1 50821U 22001U   23266.32271359  .00005599  00000-0  36954-3 0  9990,2 50821  53.2152 242.0568 0001353  82.0130 278.1016 15.08847178 96031,6917.858,95.437,540.659,538.787,0.0
50821.0,STARLINK-3346,PAYLOAD,2023-09-24 04:24:43,15.08842977,0.0001563,53.2159,238.1891,90.9338,269.1833,4.5501e-06,-2.16e-06,0.0,0 STARLINK-3346,1 50821U 22001U   23267.18383448 -.00000216  00000-0  45501-5 0  9990,2 50821  53.2159 238.1891 0001563  90.9338 269.1833 15.08842977 96167,6917.871,95.437,540.818,538.655,0.0
50821.0,STARLINK-3346,PAYLOAD,2023-09-24 07:35:29,15.08844102,0.0001501,53.2157,237.5945,92.9477,267.1687,3.0344e-05,1.95e-06,0.0,0 STARLINK-3346,1 50821U 22001U   23267.31631340  .00000195  00000-0  30344-4 0  9995,2 50821  53.2157 237.5945 0001501  92.9477 267.1687 15.08844102 94936,6917.868,95.437,540.771,538.694,0.0
50821.0,STARLINK-3346,PAYLOAD,2023-09-25 07:26:16,15.08847458,0.0001538,53.2154,233.1335,97.124,262.9927,0.00013594,1.877e-05,0.0,0 STARLINK-3346,1 50821U 22001U   23268.30991301  .00001877  00000-0  13594-3 0  9996,2 50821  53.2154 233.1335 0001538  97.1240 262.9927 15.08847458 96336,6917.858,95.437,540.787,538.659,0.0
50821.0,STARLINK-3346,PAYLOAD,2023-09-25 15:23:12,15.08848528,0.0001507,53.216,231.6465,98.5463,261.57,0.00015245,2.14e-05,0.0,0 STARLINK-3346,1 50821U 22001U   23268.64111154  .00002140  00000-0  15245-3 0  9992,2 50821  53.2160 231.6465 0001507  98.5463 261.5700 15.08848528 95138,6917.854,95.437,540.762,538.677,0.0
50821.0,STARLINK-3346,PAYLOAD,2023-09-26 04:06:16,15.0886186,0.0001533,53.2149,229.2678,100.9809,259.1356,0.0004028,6.132e-05,0.0,0 STARLINK-3346,1 50821U 22001U   23269.17102390  .00006132  00000-0  40280-3 0  9995,2 50821  53.2149 229.2678 0001533 100.9809 259.1356 15.08861860 96466,6917.814,95.436,540.739,538.618,0.0
50821.0,STARLINK-3346,PAYLOAD,2023-09-26 21:35:31,15.08844096,0.0001609,53.2154,225.9977,87.911,272.2066,-6.7437e-06,-3.95e-06,0.0,0 STARLINK-3346,1 50821U 22001U   23269.89966976 -.00000395  00000-0 -67437-5 0  9994,2 50821  53.2154 225.9977 0001609  87.9110 272.2066 15.08844096 95320,6917.868,95.437,540.846,538.62,0.0
50821.0,STARLINK-3346,PAYLOAD,2023-09-27 03:57:04,15.08837376,0.000149,53.216,224.8073,102.9395,257.1764,-0.00012579,-2.289e-05,0.0,0 STARLINK-3346,1 50821U 22001U   23270.16463105 -.00002289  00000-0 -12579-3 0  9991,2 50821  53.2160 224.8073 0001490 102.9395 257.1764 15.08837376 96616,6917.888,95.438,540.784,538.723,0.0
50821.0,STARLINK-3346,PAYLOAD,2023-09-27 07:07:50,15.08836564,0.0001479,53.2159,224.2128,101.686,258.4299,-0.00012501,-2.277e-05,0.0,0 STARLINK-3346,1 50821U 22001U   23270.29711158 -.00002277  00000-0 -12501-3 0  9991,2 50821  53.2159 224.2128 0001479 101.6860 258.4299 15.08836564 95387,6917.891,95.438,540.779,538.733,0.0
50821.0,STARLINK-3346,PAYLOAD,2023-09-27 13:29:23,15.08829411,0.0001462,53.2157,223.0226,87.9923,272.1237,-0.00016739,-2.95e-05,0.0,0 STARLINK-3346,1 50821U 22001U   23270.56207870 -.00002950  00000-0 -16739-3 0  9997,2 50821  53.2157 223.0226 0001462  87.9923 272.1237 15.08829411 96670,6917.913,95.438,540.789,538.766,0.0
50821.0,STARLINK-3346,PAYLOAD,2023-09-28 02:12:29,15.08833589,0.0001609,53.2178,220.6443,108.007,252.1098,-0.00018218,-3.186e-05,0.0,0 STARLINK-3346,1 50821U 22001U   23271.09200626 -.00003186  00000-0 -18218-3 0  9994,2 50821  53.2178 220.6443 0001609 108.0070 252.1098 15.08833589 95503,6917.9,95.438,540.878,538.652,0.0
50821.0,STARLINK-3346,PAYLOAD,2023-09-28 19:41:44,15.0882817,0.0001509,53.2179,217.3748,103.0806,257.0354,0.00013969,1.935e-05,0.0,0 STARLINK-3346,1 50821U 22001U   23271.82064835  .00001935  00000-0  13969-3 0  9991,2 50821  53.2179 217.3748 0001509 103.0806 257.0354 15.08828170 95617,6917.917,95.438,540.825,538.738,0.0
50821.0,STARLINK-3346,PAYLOAD,2023-09-28 22:52:30,15.08831879,0.0001389,53.2166,216.7815,94.9787,265.1364,0.00018619,2.676e-05,0.0,0 STARLINK-3346,1 50821U 22001U   23271.95312661  .00002676  00000-0  18619-3 0  9998,2 50821  53.2166 216.7815 0001389  94.9787 265.1364 15.08831879 96884,6917.905,95.438,540.731,538.809,0.0
50821.0,STARLINK-3346,PAYLOAD,2023-09-29 06:49:25,15.08842443,0.0001465,53.2159,215.2932,97.3996,262.7163,0.00030999,4.649e-05,0.0,0 STARLINK-3346,1 50821U 22001U   23272.28432403  .00004649  00000-0  30999-3 0  9999,2 50821  53.2159 215.2932 0001465  97.3996 262.7163 15.08842443 96939,6917.873,95.437,540.751,538.724,0.0
50821.0,STARLINK-3346,PAYLOAD,2023-09-30 03:29:26,15.0885482,0.0001533,53.2163,211.4263,79.0325,281.084,0.00032621,4.91e-05,0.0,0 STARLINK-3346,1 50821U 22001U   23273.14543990  .00004910  00000-0  32621-3 0  9994,2 50821  53.2163 211.4263 0001533  79.0325 281.0840 15.08854820 95812,6917.835,95.437,540.761,538.64,0.0
50821.0,STARLINK-3346,PAYLOAD,2023-09-30 13:01:44,15.08851019,0.0001397,53.2159,209.6436,81.5149,278.6001,0.00019081,2.751e-05,0.0,0 STARLINK-3346,1 50821U 22001U   23273.54287777  .00002751  00000-0  19081-3 0  9992,2 50821  53.2159 209.6436 0001397  81.5149 278.6001 15.08851019 97122,6917.847,95.437,540.678,538.745,0.0
50821.0,STARLINK-3346,PAYLOAD,2023-10-01 03:20:13,15.08839211,0.0001521,53.2167,206.9686,79.3224,280.7939,-5.8437e-05,-1.218e-05,0.0,0 STARLINK-3346,1 50821U 22001U   23274.13904340 -.00001218  00000-0 -58437-4 0  9998,2 50821  53.2167 206.9686 0001521  79.3224 280.7939 15.08839211 97210,6917.883,95.438,540.8,538.696,0.0
50821.0,STARLINK-3346,PAYLOAD,2023-10-01 04:55:36,15.08846096,0.0001582,53.2165,206.6687,76.592,283.5248,0.00012581,1.715e-05,0.0,0 STARLINK-3346,1 50821U 22001U   23274.20528178  .00001715  00000-0  12581-3 0  9996,2 50821  53.2165 206.6687 0001582  76.5920 283.5248 15.08846096 95979,6917.862,95.437,540.821,538.632,0.0
50821.0,STARLINK-3346,PAYLOAD,2023-10-02 01:35:37,15.08846109,0.0001553,53.2153,202.8094,69.3545,290.7614,0.00018956,2.731e-05,0.0,0 STARLINK-3346,1 50821U 22001U   23275.06640451  .00002731  00000-0  18956-3 0  9991,2 50821  53.2153 202.8094 0001553  69.3545 290.7614 15.08846109 97353,6917.862,95.437,540.801,538.652,0.0
50821.0,STARLINK-3346,PAYLOAD,2023-10-02 04:46:23,15.08857525,0.0001422,53.2164,202.2077,101.472,258.6432,0.00040386,6.148e-05,0.0,0 STARLINK-3346,1 50821U 22001U   23275.19887761  .00006148  00000-0  40386-3 0  9990,2 50821  53.2164 202.2077 0001422 101.4720 258.6432 15.08857525 97375,6917.827,95.436,540.676,538.708,0.0
50821.0,STARLINK-3346,PAYLOAD,2023-10-02 19:04:51,15.08840837,0.0001615,53.2164,199.5355,95.5423,264.5754,0.00019457,2.81e-05,0.0,0 STARLINK-3346,1 50821U 22001U   23275.79504546  .00002810  00000-0  19457-3 0  9990,2 50821  53.2164 199.5355 0001615  95.5423 264.5754 15.08840837 97460,6917.878,95.438,540.86,538.626,0.0
50821.0,STARLINK-3346,PAYLOAD,2023-10-03 04:37:10,15.08848839,0.0001528,53.2147,197.749,113.5532,246.5621,0.00041747,6.364e-05,0.0,0 STARLINK-3346,1 50821U 22001U   23276.19248126  .00006364  00000-0  41747-3 0  9999,2 50821  53.2147 197.7490 0001528 113.5532 246.5621 15.08848839 96277,6917.853,95.437,540.775,538.661,0.0
